TYVAK-182A              
1 48271U 21034D   26068.71131789  .00007163  00000+0  50673-3 0  9991
2 48271  97.5843 129.3711 0004862 316.5650  43.5193 15.05150420264864
STARLINK-5512           
1 57256U 23094AQ  26068.29316909 -.00000803  00000+0 -44391-4 0  9991
2 57256  43.0032  19.2095 0001230 263.4150  96.6552 15.02533718147215
